0 COSMOS 860 COOLANT
1 29194U 76103G   13281.85043096  .00000286  00000-0  28041-3 0  9930
2 29194 064.6826 062.1522 0059453 320.0408 039.6281 13.94457711524349
0 COSMOS 860 COOLANT
1 29194U 76103G   13283.93020152  .00000291  00000-0  28415-3 0  9941
2 29194 064.6830 056.6095 0059567 319.6571 040.0067 13.94459576524639
0 COSMOS 860 COOLANT
1 29194U 76103G   13284.93422772  .00000303  00000-0  29239-3 0  9956
2 29194 064.6834 053.9279 0059009 318.8443 040.8454 13.94460937524773
0 COSMOS 860 COOLANT
1 29194U 76103G   13286.94226963  .00000315  00000-0  30182-3 0  9966
2 29194 064.6837 048.5762 0059733 318.7689 040.8813 13.94463177525058
0 COSMOS 860 COOLANT
1 29194U 76103G   13289.66747872  .00000330  00000-0  31261-3 0  9972
2 29194 064.6827 041.3162 0060758 319.3811 040.2761 13.94466069525436
0 COSMOS 860 COOLANT
1 29194U 76103G   13291.67551627  .00000371  00000-0  34244-3 0  9987
2 29194 064.6831 035.9649 0061455 319.7589 039.9188 13.94469769525710
0 COSMOS 860 COOLANT
1 29194U 76103G   13293.75526770  .00000389  00000-0  35538-3 0  9996
2 29194 064.6824 030.4311 0063924 321.3593 038.2833 13.94472454526002
0 COSMOS 860 COOLANT
1 29194U 76103G   13295.83501403  .00000426  00000-0  38213-3 0    01
2 29194 064.6833 024.8914 0065012 321.4792 038.1689 13.94476055526290
